HORUS 2                 
1 55844U 23032A   26180.53657287  .00005358  00000+0  22709-3 0  9999
2 55844  97.3537 255.6906 0002260  94.5087 265.6409 15.23552329183368
GLOBAL-19               
1 55982U 23041B   26180.30591869  .00012271  00000+0  32406-3 0  9997
2 55982  42.0003 131.2013 0007317  99.7913 260.3753 15.38295910183794
ION SCV-010             
1 56192U 23054Q   26180.22349193  .00004382  00000+0  17135-3 0  9993
2 56192  97.3771  69.5713 0013479 154.8950 205.2947 15.26295429178039
TELEOS-2                
1 56310U 23057C   26180.21989850  .00003443  00000+0  23676-3 0  9991
2 56310   9.9874 116.5545 0000924 258.2885 101.7225 14.96371059174605
SNIPE 4                 
1 56744U 23072B   26180.53910939  .00018677  00000+0  42813-3 0  9995
2 56744  97.5237  26.9391 0003830 277.9894  82.0918 15.42799018172016
SNIPE 2                 
1 56745U 23072C   26180.54544588  .00024602  00000+0  48063-3 0  9998
2 56745  97.5230  30.0766 0003065 318.7298  41.3720 15.47457450172154
2023-072G               
1 56749U 23072G   26180.51599389  .00028556  00000+0  48798-3 0  9995
2 56749  97.4882  28.8641 0001615 305.4961  54.6140 15.51259503172377
GEISAT PRECURSOR        
1 56934U 23084C   26180.47649745  .00007249  00000+0  21723-3 0  9996
2 56934  97.6235 321.8356 0004112 304.6373  55.4481 15.34814332169415
BLACKJACK ACES-3        
1 56950U 23084U   26180.42664969  .00004752  00000+0  23319-3 0  9993
2 56950  97.6224 315.7114 0001509   2.4111 357.7130 15.18586027169020
BLACKJACK ACES-2        
1 56955U 23084Z   26180.36666596  .00006147  00000+0  30031-3 0  9998
2 56955  97.6222 315.7358 0000807 119.6596 240.4718 15.18624296169022
BLACKJACK ACES-1        
1 56956U 23084AA  26180.35461668  .00006041  00000+0  29538-3 0  9994
2 56956  97.6211 315.4958 0001296 126.8531 233.2822 15.18601977118746
ION SCV-011             
1 56957U 23084AB  26180.50138545  .00004753  00000+0  17203-3 0  9991
2 56957  98.1374   8.9224 0007090   5.5273 354.6041 15.28960149167696
GHOST-3                 
1 56958U 23084AC  26180.50951347  .00016716  00000+0  31819-3 0  9996
2 56958  97.6226 329.7455 0005959 243.5423 116.5216 15.48279779169921
AFR-1                   
1 56964U 23084AJ  26180.47355990  .00004452  00000+0  16247-3 0  9993
2 56964  97.6288 317.4613 0009096 299.3110  60.7220 15.28654690169106
METEOR-M2 3             
1 57166U 23091A   26180.53489422  .00000012  00000+0  23912-4 0  9997
2 57166  98.6077 235.2603 0004905 125.6037 234.5600 14.24047785156270
UMKA 1 (RS40S)          
1 57172U 23091G   26180.52884965  .00005798  00000+0  26430-3 0  9997
2 57172  97.5047 239.1789 0014191  79.5284 280.7550 15.20956934165885
2023-091H               
1 57173U 23091H   26180.48843203  .00009989  00000+0  35783-3 0  9990
2 57173  97.5048 243.7812 0010941  75.6859 284.5595 15.28896605166180
2023-091J               
1 57174U 23091J   26180.48181069  .00003765  00000+0  21044-3 0  9997
2 57174  97.5051 233.4030 0014845 104.7376 255.5502 15.14011884165490
CUBEBEL 2 (EU11S)       
1 57175U 23091K   26180.48499847  .00012167  00000+0  42774-3 0  9993
2 57175  97.5051 243.8133 0010931  77.0895 283.1565 15.29456477166180
SITRO-AIS 5 (KATYS)     
1 57176U 23091L   26180.49964597  .00011030  00000+0  38465-3 0  9994
2 57176  97.5060 244.5175 0012222  65.0232 295.2276 15.29732720166228
ZORKIY-2M 1             
1 57177U 23091M   26180.51447648  .00006991  00000+0  31696-3 0  9990
2 57177  97.5089 239.4408 0014637  76.9880 283.2989 15.21061654165875
CUBESX-HSE 3 (RS42S)    
1 57178U 23091N   26180.52378063  .00012433  00000+0  41010-3 0  9995
2 57178  97.5092 246.2684 0011276  55.8921 304.3388 15.31519311166317
MONITOR-3 (RS58S)       
1 57180U 23091Q   26180.51022314  .00010170  00000+0  37317-3 0  9993
2 57180  97.5082 244.0477 0012523  62.3384 297.9124 15.28085042166171
MONITOR-4 (RS57S)       
1 57182U 23091S   26180.48859632  .00009839  00000+0  36022-3 0  9994
2 57182  97.5077 243.9979 0012531  62.6071 297.6441 15.28168993166173
MONITOR-2 (RS39S)       
1 57184U 23091U   26180.49981549  .00005049  00000+0  24393-3 0  9997
2 57184  97.5070 238.7032 0012605  73.7465 286.5155 15.19022326165821
SVYATOBOR 1 (RS60S)     
1 57187U 23091X   26180.51239135  .00008610  00000+0  32897-3 0  9995
2 57187  97.5089 244.3984 0010272  56.9326 303.2898 15.26819344166194
HORS 1                  
1 57188U 23091Y   26180.49705332  .00008517  00000+0  32440-3 0  9990
2 57188  97.5066 244.1437 0009747  57.1428 303.0747 15.26931403166194
VIZARD-METEO (RS38S)    
1 57189U 23091Z   26180.52374782  .00015195  00000+0  42951-3 0  9994
2 57189  97.5093 250.2583 0007254  38.6374 321.5387 15.36409727166588
SITRO-AIS 6 (CHIRKIN)   
1 57192U 23091AC  26180.50716464  .00009493  00000+0  36932-3 0  9999
2 57192  97.5067 243.5784 0012654  68.2134 292.0450 15.26164520166169
SITRO-AIS 8 (ANOKHIN)   
1 57193U 23091AD  26180.49496624  .00013167  00000+0  42160-3 0  9994
2 57193  97.5057 246.1519 0011095  61.3352 298.9003 15.32461491166330
