OBJECT_NAME,OBJECT_ID,EPOCH,MEAN_MOTION,ECCENTRICITY,INCLINATION,RA_OF_ASC_NODE,ARG_OF_PERICENTER,MEAN_ANOMALY,EPHEMERIS_TYPE,CLASSIFICATION_TYPE,NORAD_CAT_ID,ELEMENT_SET_NO,REV_AT_EPOCH,BSTAR,MEAN_MOTION_DOT,MEAN_MOTION_DDOT
HORUS 2,2023-032A,2026-06-29T12:52:39.895968,15.23552329,.000226,97.3537,255.6906,94.5087,265.6409,0,U,55844,999,18336,.22709E-3,.5358E-4,0
GLOBAL-19,2023-041B,2026-06-29T07:20:31.374816,15.38295910,.0007317,42.0003,131.2013,99.7913,260.3753,0,U,55982,999,18379,.32406E-3,.12271E-3,0
ION SCV-010,2023-054Q,2026-06-29T05:21:49.702752,15.26295429,.0013479,97.3771,69.5713,154.8950,205.2947,0,U,56192,999,17803,.17135E-3,.4382E-4,0
TELEOS-2,2023-057C,2026-06-29T05:16:39.230400,14.96371059,.0000924,9.9874,116.5545,258.2885,101.7225,0,U,56310,999,17460,.23676E-3,.3443E-4,0
SNIPE 4,2023-072B,2026-06-29T12:56:19.051296,15.42799018,.000383,97.5237,26.9391,277.9894,82.0918,0,U,56744,999,17201,.42813E-3,.18677E-3,0
SNIPE 2,2023-072C,2026-06-29T13:05:26.524032,15.47457450,.0003065,97.5230,30.0766,318.7298,41.3720,0,U,56745,999,17215,.48063E-3,.24602E-3,0
2023-072G,2023-072G,2026-06-29T12:23:01.872096,15.51259503,.0001615,97.4882,28.8641,305.4961,54.6140,0,U,56749,999,17237,.48798E-3,.28556E-3,0
GEISAT PRECURSOR,2023-084C,2026-06-29T11:26:09.379680,15.34814332,.0004112,97.6235,321.8356,304.6373,55.4481,0,U,56934,999,16941,.21723E-3,.7249E-4,0
BLACKJACK ACES-3,2023-084U,2026-06-29T10:14:22.533216,15.18586027,.0001509,97.6224,315.7114,2.4111,357.7130,0,U,56950,999,16902,.23319E-3,.4752E-4,0
BLACKJACK ACES-2,2023-084Z,2026-06-29T08:47:59.938944,15.18624296,.0000807,97.6222,315.7358,119.6596,240.4718,0,U,56955,999,16902,.30031E-3,.6147E-4,0
BLACKJACK ACES-1,2023-084AA,2026-06-29T08:30:38.881152,15.18601977,.0001296,97.6211,315.4958,126.8531,233.2822,0,U,56956,999,11874,.29538E-3,.6041E-4,0
ION SCV-011,2023-084AB,2026-06-29T12:01:59.702880,15.28960149,.000709,98.1374,8.9224,5.5273,354.6041,0,U,56957,999,16769,.17203E-3,.4753E-4,0
GHOST-3,2023-084AC,2026-06-29T12:13:41.963808,15.48279779,.0005959,97.6226,329.7455,243.5423,116.5216,0,U,56958,999,16992,.31819E-3,.16716E-3,0
AFR-1,2023-084AJ,2026-06-29T11:21:55.575360,15.28654690,.0009096,97.6288,317.4613,299.3110,60.7220,0,U,56964,999,16910,.16247E-3,.4452E-4,0
METEOR-M2 3,2023-091A,2026-06-29T12:50:14.860608,14.24047785,.0004905,98.6077,235.2603,125.6037,234.5600,0,U,57166,999,15627,.23912E-4,.12E-6,0
UMKA 1 (RS40S),2023-091G,2026-06-29T12:41:32.609760,15.20956934,.0014191,97.5047,239.1789,79.5284,280.7550,0,U,57172,999,16588,.2643E-3,.5798E-4,0
2023-091H,2023-091H,2026-06-29T11:43:20.527392,15.28896605,.0010941,97.5048,243.7812,75.6859,284.5595,0,U,57173,999,16618,.35783E-3,.9989E-4,0
2023-091J,2023-091J,2026-06-29T11:33:48.443616,15.14011884,.0014845,97.5051,233.4030,104.7376,255.5502,0,U,57174,999,16549,.21044E-3,.3765E-4,0
CUBEBEL 2 (EU11S),2023-091K,2026-06-29T11:38:23.867808,15.29456477,.0010931,97.5051,243.8133,77.0895,283.1565,0,U,57175,999,16618,.42774E-3,.12167E-3,0
SITRO-AIS 5 (KATYS),2023-091L,2026-06-29T11:59:29.411808,15.29732720,.0012222,97.5060,244.5175,65.0232,295.2276,0,U,57176,999,16622,.38465E-3,.1103E-3,0
ZORKIY-2M 1,2023-091M,2026-06-29T12:20:50.767872,15.21061654,.0014637,97.5089,239.4408,76.9880,283.2989,0,U,57177,999,16587,.31696E-3,.6991E-4,0
CUBESX-HSE 3 (RS42S),2023-091N,2026-06-29T12:34:14.646432,15.31519311,.0011276,97.5092,246.2684,55.8921,304.3388,0,U,57178,999,16631,.4101E-3,.12433E-3,0
MONITOR-3 (RS58S),2023-091Q,2026-06-29T12:14:43.279296,15.28085042,.0012523,97.5082,244.0477,62.3384,297.9124,0,U,57180,999,16617,.37317E-3,.1017E-3,0
MONITOR-4 (RS57S),2023-091S,2026-06-29T11:43:34.722048,15.28168993,.0012531,97.5077,243.9979,62.6071,297.6441,0,U,57182,999,16617,.36022E-3,.9839E-4,0
MONITOR-2 (RS39S),2023-091U,2026-06-29T11:59:44.058336,15.19022326,.0012605,97.5070,238.7032,73.7465,286.5155,0,U,57184,999,16582,.24393E-3,.5049E-4,0
SVYATOBOR 1 (RS60S),2023-091X,2026-06-29T12:17:50.612640,15.26819344,.0010272,97.5089,244.3984,56.9326,303.2898,0,U,57187,999,16619,.32897E-3,.861E-4,0
HORS 1,2023-091Y,2026-06-29T11:55:45.406848,15.26931403,.0009747,97.5066,244.1437,57.1428,303.0747,0,U,57188,999,16619,.3244E-3,.8517E-4,0
VIZARD-METEO (RS38S),2023-091Z,2026-06-29T12:34:11.811648,15.36409727,.0007254,97.5093,250.2583,38.6374,321.5387,0,U,57189,999,16658,.42951E-3,.15195E-3,0
SITRO-AIS 6 (CHIRKIN),2023-091AC,2026-06-29T12:10:19.024896,15.26164520,.0012654,97.5067,243.5784,68.2134,292.0450,0,U,57192,999,16616,.36932E-3,.9493E-4,0
SITRO-AIS 8 (ANOKHIN),2023-091AD,2026-06-29T11:52:45.083136,15.32461491,.0011095,97.5057,246.1519,61.3352,298.9003,0,U,57193,999,16633,.4216E-3,.13167E-3,0
